ONEWEB-0589             
1 54655U 22166P   24140.26440966  .00000143  00000+0  31565-3 0  9990
2 54655  87.9317  35.0536 0001097  55.0735 305.0502 13.21827095 71287
ONEWEB-0590             
1 54656U 22166Q   24140.74223790  .00000097  00000+0  20426-3 0  9990
2 54656  87.9318  34.9645 0002074  77.0947 283.0419 13.21828497 71798
ONEWEB-0591             
1 54657U 22166R   24140.60345630  .00000006  00000+0 -17710-4 0  9998
2 54657  87.9316  34.9895 0001762  77.3694 282.7637 13.21828063 71347
ONEWEB-0592             
1 54658U 22166S   24141.13648873  .00000094  00000+0  19594-3 0  9990
2 54658  87.9313  34.8502 0001696  72.9983 287.1337 13.21827834 71764
ONEWEB-0593             
1 54659U 22166T   24140.78166759  .00000021  00000+0  19767-4 0  9992
2 54659  87.9315  34.9448 0001659  75.0052 285.1265 13.21828086 71822
ONEWEB-0594             
1 54660U 22166U   24141.17907218  .00000049  00000+0  86218-4 0  9996
2 54660  87.9318  34.8648 0001894  85.8425 274.2925 13.21828049 71889
ONEWEB-0595             
1 54661U 22166V   24140.77852912  .00000012  00000+0 -32086-5 0  9998
2 54661  87.9316  34.9324 0002130  79.6579 280.4795 13.21826494 71814
ONEWEB-0596             
1 54662U 22166W   24140.22182176 -.00000033  00000+0 -11128-3 0  9993
2 54662  87.9326  35.0462 0001639  68.7110 291.4199 13.21831586 71272
